[{"OBJECT_NAME":"STARLINK-3272","OBJECT_ID":"2021-125AH","EPOCH":"2026-03-09T17:09:09.194400","MEAN_MOTION":15.08836549,"ECCENTRICITY":0.00012772,"INCLINATION":53.2168,"RA_OF_ASC_NODE":239.0102,"ARG_OF_PERICENTER":90.3373,"MEAN_ANOMALY":269.7766,"EPHEMERIS_TYPE":0,"CLASSIFICATION_TYPE":"U","NORAD_CAT_ID":50187,"ELEMENT_SET_NO":999,"REV_AT_EPOCH":23672,"BSTAR":1.0476943e-5,"MEAN_MOTION_DOT":-1.21e-6,"MEAN_MOTION_DDOT":0},{"OBJECT_NAME":"UNKNOWN","OBJECT_ID":"","EPOCH":"2026-03-07T17:21:07.805664","MEAN_MOTION":15.09455608,"ECCENTRICITY":0.0009057,"INCLINATION":82.8696,"RA_OF_ASC_NODE":177.6495,"ARG_OF_PERICENTER":167.3062,"MEAN_ANOMALY":192.8398,"EPHEMERIS_TYPE":0,"CLASSIFICATION_TYPE":"U","NORAD_CAT_ID":87725,"ELEMENT_SET_NO":999,"REV_AT_EPOCH":64668,"BSTAR":0.0060116,"MEAN_MOTION_DOT":0.00097492,"MEAN_MOTION_DDOT":0}]
